[{"OBJECT_NAME":"EUCROPIS","OBJECT_ID":"2018-099BB","EPOCH":"2026-03-09T17:11:26.691360","MEAN_MOTION":15.19070978,"ECCENTRICITY":0.00039821,"INCLINATION":97.4349,"RA_OF_ASC_NODE":126.0391,"ARG_OF_PERICENTER":286.1281,"MEAN_ANOMALY":73.9515,"EPHEMERIS_TYPE":0,"CLASSIFICATION_TYPE":"U","NORAD_CAT_ID":43807,"ELEMENT_SET_NO":999,"REV_AT_EPOCH":39735,"BSTAR":0.00041485658,"MEAN_MOTION_DOT":8.636e-5,"MEAN_MOTION_DDOT":0},{"OBJECT_NAME":"GUANGCHUAN 02","OBJECT_ID":"2024-221B","EPOCH":"2026-03-09T22:15:41.335200","MEAN_MOTION":15.16931464,"ECCENTRICITY":0.00066009,"INCLINATION":49.9417,"RA_OF_ASC_NODE":285.1157,"ARG_OF_PERICENTER":306.8917,"MEAN_ANOMALY":53.1429,"EPHEMERIS_TYPE":0,"CLASSIFICATION_TYPE":"U","NORAD_CAT_ID":62112,"ELEMENT_SET_NO":999,"REV_AT_EPOCH":7113,"BSTAR":0.00030203163,"MEAN_MOTION_DOT":5.737e-5,"MEAN_MOTION_DDOT":0}]
